STARLINK-2358           
1 47898U 21021AQ  23270.47904657 -.00004793  00000+0 -30320-3 0  9993
2 47898  53.0549 325.8887 0001655  63.9882 296.1278 15.06387922140944
STARLINK-2359           
1 47899U 21021AR  23271.58335648  .00335031  00000+0  14104-2 0  9996
2 47899  53.0303 226.0386 0003480 156.6557 233.1546 15.84045105142420
STARLINK-2360           
1 47900U 21021AS  23271.42907033  .00012750  00000+0  87296-3 0  9998
2 47900  53.0541 321.6224 0001586  84.2629 275.8541 15.06415080141087
STARLINK-2361           
1 47901U 21021AT  23270.39887177  .00022737  00000+0  15417-2 0  9991
2 47901  53.0535 316.3368 0001495  81.7134 278.4024 15.06367788141539
STARLINK-2362           
1 47902U 21021AU  23271.44384148  .00012515  00000+0  85712-3 0  9998
2 47902  53.0551 331.5598 0001608  86.3459 273.7714 15.06419804140933
STARLINK-2363           
1 47903U 21021AV  23271.00241607  .00015500  00000+0  10577-2 0  9996
2 47903  53.0539 313.5279 0001445  95.2631 264.8523 15.06380328141169
STARLINK-2364           
1 47904U 21021AW  23271.39775507  .00013694  00000+0  93643-3 0  9998
2 47904  53.0529 311.7630 0001422  79.4065 280.7084 15.06399431141221
STARLINK-2365           
1 47905U 21021AX  23270.92870272  .00023209  00000+0  15731-2 0  9996
2 47905  53.0532 313.8603 0001437  82.2669 277.8483 15.06370247141153
STARLINK-2367           
1 47907U 21021AZ  23271.33694852  .00005540  00000+0  39036-3 0  9995
2 47907  53.0543 332.0307 0001274  84.6791 275.4343 15.06412652140922
STARLINK-2368           
1 47908U 21021BA  23271.47701099  .00016777  00000+0  11417-2 0  9999
2 47908  53.0556 331.4116 0001601  72.5862 287.5302 15.06426001140952
STARLINK-2369           
1 47909U 21021BB  23271.42632026  .00001586  00000+0  12534-3 0  9992
2 47909  53.0552 321.6380 0001507  81.7361 278.3799 15.06410168141084
STARLINK-2370           
1 47910U 21021BC  23271.46224461  .00019710  00000+0  13380-2 0  9995
2 47910  53.0542 321.4768 0001552  80.1056 280.0108 15.06411372141090
STARLINK-2371           
1 47911U 21021BD  23271.41207663  .00003715  00000+0  26814-3 0  9991
2 47911  53.0550 336.9439 0001462  70.9411 289.1736 15.06407338141182
STARLINK-2372           
1 47912U 21021BE  23270.99045009  .00014407  00000+0  98397-3 0  9993
2 47912  53.0541 323.5841 0001459  82.2628 277.8526 15.06406285141017
STARLINK-2374           
1 47913U 21021BF  23270.99790248  .00007646  00000+0  53170-3 0  9993
2 47913  53.0540 334.0303 0001402  96.5820 263.5328 15.06394009140861
STARLINK-2375           
1 47914U 21021BG  23270.94991463  .00013231  00000+0  90584-3 0  9998
2 47914  53.0547 333.7718 0001398  86.2858 273.8291 15.06385128140861
STARLINK-2376           
1 47915U 21021BH  23270.48410050  .00015338  00000+0  10470-2 0  9991
2 47915  53.0544 330.8660 0001353  86.9863 273.1281 15.06377662140863
STARLINK-2378           
1 47916U 21021BJ  23271.51939624  .00010173  00000+0  70100-3 0  9999
2 47916  53.0545 311.2162 0001673  96.1905 263.9274 15.06393807141230
STARLINK-2397           
1 47917U 21021BK  23271.45949746  .00001419  00000+0  11418-3 0  9999
2 47917  53.0540 321.4870 0001468  91.9787 268.1370 15.06390531141086
STARLINK-2398           
1 47918U 21021BL  23271.00246477  .00023212  00000+0  15711-2 0  9996
2 47918  53.0543 323.5434 0001658  95.0721 265.0457 15.06422494141012
STARLINK-2405           
1 47919U 21021BM  23270.45601058  .00008586  00000+0  59476-3 0  9999
2 47919  53.0558 335.9939 0001446 102.5463 257.5688 15.06388405140775
CAS500-1                
1 47932U 21022A   23271.52218519  .00013231  00000+0  59439-3 0  9992
2 47932  97.3906 169.3200 0001054 155.9498 204.1788 15.21275252139930
GRUS-1C                 
1 47933U 21022B   23271.48993590  .00002092  00000+0  19585-3 0  9998
2 47933  97.6492 166.0367 0020459  57.3829 302.9363 14.94982575137357
GRUS-1B                 
1 47934U 21022C   23271.53106377  .00003282  00000+0  30426-3 0  9993
2 47934  97.6501 166.0759 0020392  55.6877 304.6270 14.94984724137358
GRUS-1E                 
1 47935U 21022D   23271.54275077  .00002598  00000+0  24198-3 0  9997
2 47935  97.6517 166.3434 0020400  57.6719 302.6473 14.94984941137361
GRUS-1D                 
1 47936U 21022E   23271.50264726  .00002493  00000+0  23245-3 0  9999
2 47936  97.6500 166.1432 0020448  57.2276 303.0911 14.94976923137358
DMSAT-1                 
1 47940U 21022J   23271.48164506  .00016623  00000+0  82030-3 0  9993
2 47940  97.4844 168.9375 0013765 332.2714  27.7784 15.17892534138793
WILDTRACKCUBE-SIMBA     
1 47941U 21022K   23271.46728986  .00012129  00000+0  66906-3 0  9991
2 47941  97.4832 166.6965 0017868 346.1057  13.9681 15.13973508138625
HIBER-3                 
1 47942U 21022L   23271.51034649  .00017952  00000+0  88240-3 0  9998
2 47942  97.4802 168.0754 0015314 341.2949  18.7720 15.17991918138744
ELSA-D                  
1 47944U 21022N   23270.59556720  .00011916  00000+0  59424-3 0  9992
2 47944  97.4824 167.0499 0013596 335.6806  24.3784 15.17604599138608
UNISAT-7                
1 47945U 21022P   23270.28655021  .00008879  00000+0  51110-3 0  9991
2 47945  97.4816 165.6458 0015540 342.6739  17.3959 15.12565839138359
LACUNASAT-2B            
1 47948U 21022S   23270.72644408  .00051647  00000+0  17644-2 0  9994
2 47948  97.4939 172.4176 0010187 338.6178  21.4635 15.30073110138763
KEPLER-7 (C3PO)         
1 47949U 21022T   23270.68415481  .00033425  00000+0  14777-2 0  9995
2 47949  97.4817 168.2005 0014448 343.4764  16.5999 15.21532789138672
NANOSATC-BR2            
1 47950U 21022U   23271.52219230  .00020650  00000+0  10056-2 0  9997
2 47950  97.4801 167.9145 0015835 343.7167  16.3556 15.18279382138736
CUBESX-SIRIUS-HSE       
1 47951U 21022V   23271.48213743  .00014381  00000+0  75674-3 0  9998
2 47951  97.4828 167.2247 0017297 344.5827  15.4876 15.15618146138667
CUBESX-HSE              
1 47952U 21022W   23271.51675692  .00014904  00000+0  78247-3 0  9998
2 47952  97.4832 167.3157 0017177 344.0953  15.9738 15.15691173138670
KSU-CUBESAT             
1 47954U 21022Y   23271.23790781  .00014402  00000+0  73271-3 0  9991
2 47954  97.4839 167.5777 0016320 344.0332  16.0384 15.16822120138385
KEPLER-6 (ROCINANTE)    
1 47955U 21022Z   23271.52501763  .00022321  00000+0  10944-2 0  9990
2 47955  97.4825 168.0504 0016242 341.9052  18.1601 15.18019668138453
CHALLENGE ONE           
1 47956U 21022AA  23270.69802046  .00016232  00000+0  84635-3 0  9999
2 47956  97.4838 166.5072 0017591 348.9235  11.1608 15.15908465138335
BEESAT-6                
1 47957U 21022AB  23270.46382070  .00036740  00000+0  15195-2 0  9995
2 47957  97.4804 168.7479 0013902 344.1377  15.9423 15.23783960138484
GRBALPHA                
1 47959U 21022AD  23271.49765002  .00013580  00000+0  71170-3 0  9994
2 47959  97.4834 167.3975 0016990 344.7548  15.3170 15.15779231137491
ORBICRAFT-ZORKY         
1 47960U 21022AE  23271.46798099  .00017099  00000+0  87262-3 0  9993
2 47960  97.4867 167.9594 0016566 342.7317  17.3350 15.16669681138203
3B5GSAT (SATELIOT 1)    
1 47961U 21022AF  23271.53095544  .00035037  00000+0  13245-2 0  9998
2 47961  97.4892 171.6970 0012790 331.9356  28.1191 15.26815160137758
STECCO                  
1 47962U 21022AG  23271.46844683  .00031491  00000+0  12683-2 0  9992
2 47962  97.4838 171.3693 0010030 333.4718  26.6005 15.24754747137750
SMOG-1                  
1 47964U 21022AJ  23271.52068943  .00032960  00000+0  12840-2 0  9995
2 47964  97.4853 172.1846 0011359 325.7603  34.2901 15.25845217137800
VEERY-RL1               
1 47965U 21023A   23270.94664963  .00062293  00000+0  19262-2 0  9993
2 47965  44.9736 237.8406 0014314  69.1569 291.0847 15.32632043139176
CENTAURI-3 (TYVAK-0210) 
1 47966U 21023B   23271.17439795  .00035200  00000+0  13947-2 0  9995
2 47966  45.0020 258.8059 0008323  45.0269 315.1286 15.24850146138941
M2-A                    
1 47967U 21023C   23271.45333068  .00010886  00000+0  58150-3 0  9992
2 47967  44.9973 273.9053 0011964  24.6402 335.5045 15.15236715138787
MYRIOTA 7 (TYVAK-0152)  
1 47968U 21023D   23271.12000261  .00019074  00000+0  91671-3 0  9996
2 47968  44.9996 267.6695 0011418  31.3885 328.7674 15.18546387138839
GUNSMOKE-J 3            
1 47969U 21023E   23271.14617930  .00014905  00000+0  77546-3 0  9999
2 47969  44.9998 270.9997 0011065  17.2504 342.8748 15.15929185138795
GLOBAL-9                
1 47971U 21023G   23270.73218825  .00038676  00000+0  80537-3 0  9991
2 47971  44.9956  20.5623 0002156  58.1831 301.9268 15.45009684141765
M2-B                    
1 47973U 21023J   23271.45372250  .00015627  00000+0  82712-3 0  9994
2 47973  44.9976 273.9160 0011745  27.2597 332.8895 15.15281922112917
STARLINK-2087           
1 47977U 21024A   23270.59745383  .00026861  00000+0  18171-2 0  9993
2 47977  53.0568  20.3538 0001384  59.4870 300.6255 15.06363649139426
STARLINK-1647           
1 47978U 21024B   23270.61865753  .00024532  00000+0  16607-2 0  9996
2 47978  53.0562  30.2589 0001326  71.3141 288.7992 15.06386799139275
STARLINK-2325           
1 47979U 21024C   23270.42376515  .00005649  00000+0  39793-3 0  9999
2 47979  53.0555 326.1454 0001553  99.3820 260.7344 15.06388564140682
STARLINK-2312           
1 47980U 21024D   23271.50558608  .00007619  00000+0  52969-3 0  9995
2 47980  53.0540 301.4061 0001474  85.2794 274.8363 15.06410737140601
STARLINK-2303           
1 47981U 21024E   23271.53644364  .00016912  00000+0  11508-2 0  9993
2 47981  53.0565  26.1346 0001747  81.7273 278.3914 15.06422672139411
STARLINK-2317           
1 47982U 21024F   23271.51709170  .00007301  00000+0  50826-3 0  9998
2 47982  53.0536 316.2272 0001511 102.0873 258.0285 15.06418414140386
STARLINK-2308           
1 47985U 21024J   23270.99140998  .00019280  00000+0  13100-2 0  9991
2 47985  53.0541 323.7549 0001498  78.4483 281.6674 15.06390923140245
